COSMOS 2433 (720)       
1 32275C 07052A   22181.99979167  .00000000  00000-0  00000-0 0  1817
2 32275  66.0834   4.2204 0001331 173.6991  39.3886  2.13104497    13
COSMOS 2432 (719)       
1 32276C 07052B   22181.99979167  .00000000  00000-0  00000-0 0  1818
2 32276  66.0970   4.3215 0008501 341.9514 179.4356  2.13103666    10
COSMOS 2434 (721)       
1 32393C 07065A   22181.99979167  .00000000  00000-0  00000-0 0  1812
2 32393  64.3815 240.9648 0001135 132.0161 330.6843  2.13103254    15
COSMOS 2436 (723)       
1 32395C 07065C   22181.99979167  .00000000  00000-0  00000-0 0  1814
2 32395  64.3902 241.0220 0014508 353.1035 245.4753  2.13103111    11
COSMOS 2456 (730)       
1 36111C 09070A   22181.99979167 -.00000000  00000-0  00000-0 0  1813
2 36111  64.3559 120.5900 0005079 311.6994 316.3828  2.13099513    12
COSMOS 2457 (733)       
1 36112C 09070B   22181.99979167 -.00000000  00000-0  00000-0 0  1814
2 36112  64.3391 120.4656 0003973 178.8538 216.6243  2.13101651    12
COSMOS 2460 (732)       
1 36402C 10007C   22181.99979167  .00000000  00000-0  00000-0 0  1817
2 36402  65.9553   3.0068 0002669  92.6401 286.4083  2.13106691    13
COSMOS 2476 (744)       
1 37867C 11064A   22181.99979167 -.00000000  00000-0  00000-0 0  1818
2 37867  64.6445 121.9515 0022092 239.7318 293.9756  2.13101867    15
COSMOS 2477 (745)       
1 37868C 11064B   22181.99979167 -.00000000  00000-0  00000-0 0  1819
2 37868  64.6522 122.0164 0019416 241.0201 110.7925  2.13101884    10
COSMOS 2475 (743)       
1 37869C 11064C   22181.99979167 -.00000000  00000-0  00000-0 0  1810
2 37869  64.6595 122.0246 0023924 257.9734  51.8665  2.13102288    13
COSMOS 2485 (747)       
1 39155C 13019A   22181.99979167 -.00000000  00000-0  00000-0 0  1812
2 39155  64.8083 122.3827 0022446 235.6532 342.4452  2.13102073    17
COSMOS 2492 (754)       
1 39620C 14012A   22181.99979167  .00000000  00000-0  00000-0 0  1812
2 39620  65.8417   2.6862 0011267 332.9997 279.5734  2.13103551    15
COSMOS 2500 (755)       
1 40001C 14032A   22181.99979167  .00000000  00000-0  00000-0 0  1819
2 40001  65.7812   2.5463 0006001 178.8832 292.3234  2.13102577    14
COSMOS 2501 (702K)      
1 40315C 14075A   22181.99979167  .00000000  00000-0  00000-0 0  1814
2 40315  63.6884 240.6970 0019235 211.1050  68.1547  2.13101626    12
COSMOS 2514 (751)       
1 41330C 16008A   22181.99979167  .00000000  00000-0  00000-0 0  1810
2 41330  65.5812   2.2349 0009173 197.9452  97.1127  2.13103107    13
COSMOS 2547 (705K)      
1 46805C 20075A   22181.99979167  .00000000  00000-0  00000-0 0  1811
2 46805  64.6590 241.0103 0008361 244.3106 308.1621  2.13103262    16
COSMOS 2522 (752)       
1 42939C 17055A   22181.99979167  .00000000  00000-0  00000-0 0  1819
2 42939  64.1480 241.3760 0009470 242.3512 172.2773  2.13102153    12
COSMOS 2527 (756)       
1 43508C 18053A   22181.99979167 -.00000000  00000-0  00000-0 0  1812
2 43508  64.9712 122.3857 0008587 238.8170 207.9165  2.13102655    12
COSMOS 2529 (757)       
1 43687C 18086A   22181.99979167  .00000000  00000-0  00000-0 0  1815
2 43687  64.3629 241.6959 0011227 262.8353 107.3232  2.13102392    10
COSMOS 2534 (758)       
1 44299C 19030A   22181.99979167  .00000000  00000-0  00000-0 0  1815
2 44299  64.4348 241.5819 0013491 281.6945 223.0338  2.13102105    19
COSMOS 2544 (759)       
1 44850C 19088A   22181.99979167 -.00000000  00000-0  00000-0 0  1812
2 44850  64.9564 122.2375 0013399 262.9581 227.2329  2.13102350    12
COSMOS 2545 (760)       
1 45358C 20018A   22181.99979167  .00000000  00000-0  00000-0 0  1810
2 45358  64.9190   2.8318 0006822 238.0045 101.6492  2.13103039    14
